{"type": "FeatureCollection", "features": [ {"type": "Feature", "properties": {"norad_id": 66847, "name": "STARLINK-36061", "group": "last-30-days", "lat": -5.846976777075892, "lon": -179.97943796499675, "alt_km": 399.4262189326264, "timestamp": "2025-12-18T15:47:09.960831+00:00", "meta": {"OBJECT_NAME": "STARLINK-36061", "OBJECT_ID": "2025-280AC", "EPOCH": "2025-12-18T06:00:02.999808", "MEAN_MOTION": 15.58723331, "ECCENTRICITY": 0.00032543, "INCLINATION": 69.9993, "RA_OF_ASC_NODE": 183.2834, "ARG_OF_PERICENTER": 269.9572, "MEAN_ANOMALY": 318.0323, "EPHEMERIS_TYPE": 0, "CLASSIFICATION_TYPE": "U", "NORAD_CAT_ID": 66847, "ELEMENT_SET_NO": 999, "REV_AT_EPOCH": 373, "BSTAR": -0.029266878, "MEAN_MOTION_DOT": -0.01988781, "MEAN_MOTION_DDOT": 0}, "tle": {"line1": "1 66847U 25280AC  25352.25003472 -.01988781  00000+0 -29267-1 0  9998", "line2": "2 66847  69.9993 183.2834 0003254 269.9572 318.0323 15.58723331  3732"}}, "geometry": {"type": "Point", "coordinates": [-179.97943796499675, -5.846976777075892]}}, {"type": "Feature", "properties": {"norad_id": 66848, "name": "STARLINK-36091", "group": "last-30-days", "lat": 42.88464673452106, "lon": 171.3672296803501, "alt_km": 337.0084658989572, "timestamp": "2025-12-18T15:47:09.960841+00:00", "meta": {"OBJECT_NAME": "STARLINK-36091", "OBJECT_ID": "2025-281A", "EPOCH": "2025-12-18T06:00:02.999808", "MEAN_MOTION": 15.76699098, "ECCENTRICITY": 0.00014741, "INCLINATION": 43.001, "RA_OF_ASC_NODE": 88.5266, "ARG_OF_PERICENTER": 263.0711, "MEAN_ANOMALY": 27.1661, "EPHEMERIS_TYPE": 0, "CLASSIFICATION_TYPE": "U", "NORAD_CAT_ID": 66848, "ELEMENT_SET_NO": 999, "REV_AT_EPOCH": 228, "BSTAR": -0.007801472, "MEAN_MOTION_DOT": -0.01149813, "MEAN_MOTION_DDOT": 0}, "tle": {"line1": "1 66848U 25281A   25352.25003472 -.01149813  00000+0 -78015-2 0  9991", "line2": "2 66848  43.0010  88.5266 0001474 263.0711  27.1661 15.76699098  2288"}}, "geometry": {"type": "Point", "coordinates": [171.3672296803501, 42.88464673452106]}}, {"type": "Feature", "properties": {"norad_id": 66849, "name": "STARLINK-36102", "group": "last-30-days", "lat": 42.96248759012631, "lon": 174.0362107794187, "alt_km": 337.24394598618164, "timestamp": "2025-12-18T15:47:09.960851+00:00", "meta": {"OBJECT_NAME": "STARLINK-36102", "OBJECT_ID": "2025-281B", "EPOCH": "2025-12-18T06:00:02.999808", "MEAN_MOTION": 15.76656405, "ECCENTRICITY": 0.00015232, "INCLINATION": 43.0009, "RA_OF_ASC_NODE": 88.5209, "ARG_OF_PERICENTER": 260.7802, "MEAN_ANOMALY": 31.5029, "EPHEMERIS_TYPE": 0, "CLASSIFICATION_TYPE": "U", "NORAD_CAT_ID": 66849, "ELEMENT_SET_NO": 999, "REV_AT_EPOCH": 228, "BSTAR": -0.0080706148, "MEAN_MOTION_DOT": -0.01183068, "MEAN_MOTION_DDOT": 0}, "tle": {"line1": "1 66849U 25281B   25352.25003472 -.01183068  00000+0 -80706-2 0  9992", "line2": "2 66849  43.0009  88.5209 0001523 260.7802  31.5029 15.76656405  2286"}}, "geometry": {"type": "Point", "coordinates": [174.0362107794187, 42.96248759012631]}}, {"type": "Feature", "properties": {"norad_id": 66850, "name": "STARLINK-36105", "group": "last-30-days", "lat": 42.9774079417508, "lon": 176.8124153891765, "alt_km": 337.57951893117206, "timestamp": "2025-12-18T15:47:09.960861+00:00", "meta": {"OBJECT_NAME": "STARLINK-36105", "OBJECT_ID": "2025-281C", "EPOCH": "2025-12-18T06:00:02.999808", "MEAN_MOTION": 15.7652745, "ECCENTRICITY": 0.00016909, "INCLINATION": 43.0009, "RA_OF_ASC_NODE": 88.5159, "ARG_OF_PERICENTER": 259.3629, "MEAN_ANOMALY": 35.1102, "EPHEMERIS_TYPE": 0, "CLASSIFICATION_TYPE": "U", "NORAD_CAT_ID": 66850, "ELEMENT_SET_NO": 999, "REV_AT_EPOCH": 228, "BSTAR": -0.0077672858, "MEAN_MOTION_DOT": -0.01137584, "MEAN_MOTION_DDOT": 0}, "tle": {"line1": "1 66850U 25281C   25352.25003472 -.01137584  00000+0 -77673-2 0  9995", "line2": "2 66850  43.0009  88.5159 0001690 259.3629  35.1102 15.76527450  2287"}}, "geometry": {"type": "Point", "coordinates": [176.8124153891765, 42.9774079417508]}}, {"type": "Feature", "properties": {"norad_id": 66851, "name": "STARLINK-36094", "group": "last-30-days", "lat": 42.929088774347676, "lon": 179.44935687074454, "alt_km": 337.88974436875924, "timestamp": "2025-12-18T15:47:09.960874+00:00", "meta": {"OBJECT_NAME": "STARLINK-36094", "OBJECT_ID": "2025-281D", "EPOCH": "2025-12-18T06:00:02.999808", "MEAN_MOTION": 15.76470376, "ECCENTRICITY": 0.00016513, "INCLINATION": 43.0008, "RA_OF_ASC_NODE": 88.5103, "ARG_OF_PERICENTER": 267.6819, "MEAN_ANOMALY": 28.8424, "EPHEMERIS_TYPE": 0, "CLASSIFICATION_TYPE": "U", "NORAD_CAT_ID": 66851, "ELEMENT_SET_NO": 999, "REV_AT_EPOCH": 228, "BSTAR": -0.0081904266, "MEAN_MOTION_DOT": -0.0118988, "MEAN_MOTION_DDOT": 0}, "tle": {"line1": "1 66851U 25281D   25352.25003472 -.01189880  00000+0 -81904-2 0  9994", "line2": "2 66851  43.0008  88.5103 0001651 267.6819  28.8424 15.76470376  2286"}}, "geometry": {"type": "Point", "coordinates": [179.44935687074454, 42.929088774347676]}}, {"type": "Feature", "properties": {"norad_id": 66852, "name": "STARLINK-35992", "group": "last-30-days", "lat": 42.81966914047446, "lon": -177.9126891553274, "alt_km": 337.999865071517, "timestamp": "2025-12-18T15:47:09.960884+00:00", "meta": {"OBJECT_NAME": "STARLINK-35992", "OBJECT_ID": "2025-281E", "EPOCH": "2025-12-18T06:00:02.999808", "MEAN_MOTION": 15.76408103, "ECCENTRICITY": 0.00015049, "INCLINATION": 43.0006, "RA_OF_ASC_NODE": 88.5055, "ARG_OF_PERICENTER": 262.074, "MEAN_ANOMALY": 36.49, "EPHEMERIS_TYPE": 0, "CLASSIFICATION_TYPE": "U", "NORAD_CAT_ID": 66852, "ELEMENT_SET_NO": 999, "REV_AT_EPOCH": 228, "BSTAR": -0.0083023361, "MEAN_MOTION_DOT": -0.01201241, "MEAN_MOTION_DDOT": 0}, "tle": {"line1": "1 66852U 25281E   25352.25003472 -.01201241  00000+0 -83023-2 0  9995", "line2": "2 66852  43.0006  88.5055 0001504 262.0740  36.4900 15.76408103  2283"}}, "geometry": {"type": "Point", "coordinates": [-177.9126891553274, 42.81966914047446]}}, {"type": "Feature", "properties": {"norad_id": 66853, "name": "STARLINK-35986", "group": "last-30-days", "lat": 42.649683694607845, "lon": -175.2839328992765, "alt_km": 338.44826769340216, "timestamp": "2025-12-18T15:47:09.960893+00:00", "meta": {"OBJECT_NAME": "STARLINK-35986", "OBJECT_ID": "2025-281F", "EPOCH": "2025-12-18T06:00:02.999808", "MEAN_MOTION": 15.76263989, "ECCENTRICITY": 0.00013432, "INCLINATION": 43.0006, "RA_OF_ASC_NODE": 88.4996, "ARG_OF_PERICENTER": 267.5313, "MEAN_ANOMALY": 33.2106, "EPHEMERIS_TYPE": 0, "CLASSIFICATION_TYPE": "U", "NORAD_CAT_ID": 66853, "ELEMENT_SET_NO": 999, "REV_AT_EPOCH": 228, "BSTAR": -0.0086539518, "MEAN_MOTION_DOT": -0.01261038, "MEAN_MOTION_DDOT": 0}, "tle": {"line1": "1 66853U 25281F   25352.25003472 -.01261038  00000+0 -86540-2 0  9993", "line2": "2 66853  43.0006  88.4996 0001343 267.5313  33.2106 15.76263989  2288"}}, "geometry": {"type": "Point", "coordinates": [-175.2839328992765, 42.649683694607845]}}, {"type": "Feature", "properties": {"norad_id": 66854, "name": "STARLINK-36087", "group": "last-30-days", "lat": 42.421669336731846, "lon": -172.69022369481164, "alt_km": 339.04413318320167, "timestamp": "2025-12-18T15:47:09.960903+00:00", "meta": {"OBJECT_NAME": "STARLINK-36087", "OBJECT_ID": "2025-281G", "EPOCH": "2025-12-18T06:00:02.999808", "MEAN_MOTION": 15.76132868, "ECCENTRICITY": 0.00016053, "INCLINATION": 43.0007, "RA_OF_ASC_NODE": 88.4942, "ARG_OF_PERICENTER": 265.4778, "MEAN_ANOMALY": 37.39, "EPHEMERIS_TYPE": 0, "CLASSIFICATION_TYPE": "U", "NORAD_CAT_ID": 66854, "ELEMENT_SET_NO": 999, "REV_AT_EPOCH": 228, "BSTAR": -0.0087615931, "MEAN_MOTION_DOT": -0.01268579, "MEAN_MOTION_DDOT": 0}, "tle": {"line1": "1 66854U 25281G   25352.25003472 -.01268579  00000+0 -87616-2 0  9996", "line2": "2 66854  43.0007  88.4942 0001605 265.4778  37.3900 15.76132868  2282"}}, "geometry": {"type": "Point", "coordinates": [-172.69022369481164, 42.421669336731846]}}, {"type": "Feature", "properties": {"norad_id": 66855, "name": "STARLINK-36090", "group": "last-30-days", "lat": 42.137266080262805, "lon": -170.13351032006028, "alt_km": 338.9381323572725, "timestamp": "2025-12-18T15:47:09.960915+00:00", "meta": {"OBJECT_NAME": "STARLINK-36090", "OBJECT_ID": "2025-281H", "EPOCH": "2025-12-18T06:00:02.999808", "MEAN_MOTION": 15.760031, "ECCENTRICITY": 0.0001164, "INCLINATION": 43.0007, "RA_OF_ASC_NODE": 88.489, "ARG_OF_PERICENTER": 264.4157, "MEAN_ANOMALY": 40.5039, "EPHEMERIS_TYPE": 0, "CLASSIFICATION_TYPE": "U", "NORAD_CAT_ID": 66855, "ELEMENT_SET_NO": 999, "REV_AT_EPOCH": 216, "BSTAR": -0.0082431463, "MEAN_MOTION_DOT": -0.01174465, "MEAN_MOTION_DDOT": 0}, "tle": {"line1": "1 66855U 25281H   25352.25003472 -.01174465  00000+0 -82431-2 0  9997", "line2": "2 66855  43.0007  88.4890 0001164 264.4157  40.5039 15.76003100  2167"}}, "geometry": {"type": "Point", "coordinates": [-170.13351032006028, 42.137266080262805]}}, {"type": "Feature", "properties": {"norad_id": 66856, "name": "STARLINK-36072", "group": "last-30-days", "lat": 41.79499236774713, "lon": -167.5912642436573, "alt_km": 339.28871682481076, "timestamp": "2025-12-18T15:47:09.960925+00:00", "meta": {"OBJECT_NAME": "STARLINK-36072", "OBJECT_ID": "2025-281J", "EPOCH": "2025-12-18T06:00:02.999808", "MEAN_MOTION": 15.7579995, "ECCENTRICITY": 0.00015288, "INCLINATION": 43.0008, "RA_OF_ASC_NODE": 88.4839, "ARG_OF_PERICENTER": 266.0903, "MEAN_ANOMALY": 40.9202, "EPHEMERIS_TYPE": 0, "CLASSIFICATION_TYPE": "U", "NORAD_CAT_ID": 66856, "ELEMENT_SET_NO": 999, "REV_AT_EPOCH": 228, "BSTAR": -0.0069005533, "MEAN_MOTION_DOT": -0.00993111, "MEAN_MOTION_DDOT": 0}, "tle": {"line1": "1 66856U 25281J   25352.25003472 -.00993111  00000+0 -69006-2 0  9997", "line2": "2 66856  43.0008  88.4839 0001528 266.0903  40.9202 15.75799950  2286"}}, "geometry": {"type": "Point", "coordinates": [-167.5912642436573, 41.79499236774713]}}]}